[
    {
        "Altitude(m)": 607911.0242885896,
        "Argument of Periapsis(deg)": 0.0,
        "Eccentricity": 0.0,
        "Inclination(deg)": 60.0,
        "Latitude(deg)": -14.293030214616255,
        "Longitude(deg)": -106.557358424754,
        "Mean Anomaly(deg)": -163.63639999999998,
        "RAAN(deg)": 165.0,
        "Satellite Name": "Test1 738",
        "Satellite Number": 738,
        "Semi-Major Axis(m)": 6980739.136638005,
        "Time(s)": 0
    },
    {
        "Altitude(m)": 608060.2584232843,
        "Argument of Periapsis(deg)": 0.00010418945913296404,
        "Eccentricity": 0.0,
        "Inclination(deg)": 60.0,
        "Latitude(deg)": -14.826691729563333,
        "Longitude(deg)": -106.26874910325411,
        "Mean Anomaly(deg)": -163.0162938545382,
        "RAAN(deg)": 164.99957995086024,
        "Satellite Name": "Test1 738",
        "Satellite Number": 738,
        "Semi-Major Axis(m)": 6980739.136638005,
        "Time(s)": 10
    }
]